[{"OBJECT_NAME":"SL-8 R/B","OBJECT_ID":"1979-089B","EPOCH":"2026-03-09T12:53:53.849184","MEAN_MOTION":14.42350739,"ECCENTRICITY":0.00171642,"INCLINATION":74.0668,"RA_OF_ASC_NODE":91.3256,"ARG_OF_PERICENTER":264.0643,"MEAN_ANOMALY":95.8558,"EPHEMERIS_TYPE":0,"CLASSIFICATION_TYPE":"U","NORAD_CAT_ID":11574,"ELEMENT_SET_NO":999,"REV_AT_EPOCH":43608,"BSTAR":0.00011654827,"MEAN_MOTION_DOT":3.59e-6,"MEAN_MOTION_DDOT":0},{"OBJECT_NAME":"SL-14 R/B","OBJECT_ID":"1980-005B","EPOCH":"2026-03-09T17:27:50.321664","MEAN_MOTION":14.90930453,"ECCENTRICITY":0.0016193,"INCLINATION":82.5144,"RA_OF_ASC_NODE":307.2004,"ARG_OF_PERICENTER":158.1149,"MEAN_ANOMALY":202.0766,"EPHEMERIS_TYPE":0,"CLASSIFICATION_TYPE":"U","NORAD_CAT_ID":11672,"ELEMENT_SET_NO":999,"REV_AT_EPOCH":47649,"BSTAR":6.6729e-5,"MEAN_MOTION_DOT":6.85e-6,"MEAN_MOTION_DDOT":0},{"OBJECT_NAME":"SL-8 R/B","OBJECT_ID":"1981-003B","EPOCH":"2026-03-09T16:04:15.381408","MEAN_MOTION":15.1097362,"ECCENTRICITY":0.0262185,"INCLINATION":82.9386,"RA_OF_ASC_NODE":290.0424,"ARG_OF_PERICENTER":178.7086,"MEAN_ANOMALY":181.4887,"EPHEMERIS_TYPE":0,"CLASSIFICATION_TYPE":"U","NORAD_CAT_ID":12139,"ELEMENT_SET_NO":999,"REV_AT_EPOCH":31467,"BSTAR":0.00054116,"MEAN_MOTION_DOT":0.00021105,"MEAN_MOTION_DDOT":0},{"OBJECT_NAME":"SL-3 R/B","OBJECT_ID":"1981-046B","EPOCH":"2026-03-09T20:23:04.320384","MEAN_MOTION":15.42000884,"ECCENTRICITY":0.0019558,"INCLINATION":81.2298,"RA_OF_ASC_NODE":289.5524,"ARG_OF_PERICENTER":21.7604,"MEAN_ANOMALY":338.4465,"EPHEMERIS_TYPE":0,"CLASSIFICATION_TYPE":"U","NORAD_CAT_ID":12465,"ELEMENT_SET_NO":999,"REV_AT_EPOCH":43845,"BSTAR":0.00031863,"MEAN_MOTION_DOT":0.0001371,"MEAN_MOTION_DDOT":0},{"OBJECT_NAME":"SL-3 R/B","OBJECT_ID":"1981-103B","EPOCH":"2026-03-09T20:06:48.778848","MEAN_MOTION":15.21378384,"ECCENTRICITY":0.0012431,"INCLINATION":81.1587,"RA_OF_ASC_NODE":213.2579,"ARG_OF_PERICENTER":286.3601,"MEAN_ANOMALY":73.6263,"EPHEMERIS_TYPE":0,"CLASSIFICATION_TYPE":"U","NORAD_CAT_ID":12904,"ELEMENT_SET_NO":999,"REV_AT_EPOCH":97325,"BSTAR":0.00027837,"MEAN_MOTION_DOT":6.277e-5,"MEAN_MOTION_DDOT":0},{"OBJECT_NAME":"SL-3 R/B","OBJECT_ID":"1982-013B","EPOCH":"2026-03-09T20:18:20.678688","MEAN_MOTION":15.22020581,"ECCENTRICITY":0.0022655,"INCLINATION":81.1762,"RA_OF_ASC_NODE":160.5873,"ARG_OF_PERICENTER":176.9824,"MEAN_ANOMALY":183.1549,"EPHEMERIS_TYPE":0,"CLASSIFICATION_TYPE":"U","NORAD_CAT_ID":13068,"ELEMENT_SET_NO":999,"REV_AT_EPOCH":40437,"BSTAR":0.0002427,"MEAN_MOTION_DOT":5.608e-5,"MEAN_MOTION_DDOT":0},{"OBJECT_NAME":"SL-3 R/B","OBJECT_ID":"1982-039B","EPOCH":"2026-03-09T20:32:03.773472","MEAN_MOTION":15.10082703,"ECCENTRICITY":0.002971,"INCLINATION":81.1584,"RA_OF_ASC_NODE":215.7706,"ARG_OF_PERICENTER":323.9285,"MEAN_ANOMALY":35.9935,"EPHEMERIS_TYPE":0,"CLASSIFICATION_TYPE":"U","NORAD_CAT_ID":13154,"ELEMENT_SET_NO":999,"REV_AT_EPOCH":38166,"BSTAR":0.00020491,"MEAN_MOTION_DOT":3.393e-5,"MEAN_MOTION_DDOT":0},{"OBJECT_NAME":"SL-3 R/B","OBJECT_ID":"1982-079B","EPOCH":"2026-03-09T19:09:18.534816","MEAN_MOTION":15.24803216,"ECCENTRICITY":0.0025044,"INCLINATION":81.1481,"RA_OF_ASC_NODE":192.9488,"ARG_OF_PERICENTER":164.5089,"MEAN_ANOMALY":195.6917,"EPHEMERIS_TYPE":0,"CLASSIFICATION_TYPE":"U","NORAD_CAT_ID":13403,"ELEMENT_SET_NO":999,"REV_AT_EPOCH":37771,"BSTAR":0.0003275,"MEAN_MOTION_DOT":8.223e-5,"MEAN_MOTION_DDOT":0},{"OBJECT_NAME":"SL-14 R/B","OBJECT_ID":"1982-092B","EPOCH":"2026-03-09T17:18:39.149280","MEAN_MOTION":14.86666375,"ECCENTRICITY":0.0019004,"INCLINATION":82.5695,"RA_OF_ASC_NODE":141.37,"ARG_OF_PERICENTER":303.4428,"MEAN_ANOMALY":173.5553,"EPHEMERIS_TYPE":0,"CLASSIFICATION_TYPE":"U","NORAD_CAT_ID":13553,"ELEMENT_SET_NO":999,"REV_AT_EPOCH":32893,"BSTAR":6.1218e-5,"MEAN_MOTION_DOT":5.69e-6,"MEAN_MOTION_DDOT":0},{"OBJECT_NAME":"SL-3 R/B","OBJECT_ID":"1983-010B","EPOCH":"2026-03-09T21:22:10.612704","MEAN_MOTION":15.46365595,"ECCENTRICITY":0.0017954,"INCLINATION":81.106,"RA_OF_ASC_NODE":2.0014,"ARG_OF_PERICENTER":50.5381,"MEAN_ANOMALY":309.7449,"EPHEMERIS_TYPE":0,"CLASSIFICATION_TYPE":"U","NORAD_CAT_ID":13819,"ELEMENT_SET_NO":999,"REV_AT_EPOCH":35797,"BSTAR":0.00039061,"MEAN_MOTION_DOT":0.00019461,"MEAN_MOTION_DDOT":0},{"OBJECT_NAME":"SL-3 R/B","OBJECT_ID":"1983-075B","EPOCH":"2026-03-09T19:36:45.261792","MEAN_MOTION":15.3842151,"ECCENTRICITY":0.0020136,"INCLINATION":97.6147,"RA_OF_ASC_NODE":73.3991,"ARG_OF_PERICENTER":225.3907,"MEAN_ANOMALY":134.5696,"EPHEMERIS_TYPE":0,"CLASSIFICATION_TYPE":"U","NORAD_CAT_ID":14208,"ELEMENT_SET_NO":999,"REV_AT_EPOCH":33017,"BSTAR":0.00034896,"MEAN_MOTION_DOT":0.00013233,"MEAN_MOTION_DDOT":0},{"OBJECT_NAME":"COSMOS 1536","OBJECT_ID":"1984-013A","EPOCH":"2026-03-09T12:33:00.332064","MEAN_MOTION":15.23821576,"ECCENTRICITY":0.00124739,"INCLINATION":82.5428,"RA_OF_ASC_NODE":108.0163,"ARG_OF_PERICENTER":284.1309,"MEAN_ANOMALY":75.8542,"EPHEMERIS_TYPE":0,"CLASSIFICATION_TYPE":"U","NORAD_CAT_ID":14699,"ELEMENT_SET_NO":999,"REV_AT_EPOCH":27259,"BSTAR":0.00029910457,"MEAN_MOTION_DOT":7.251e-5,"MEAN_MOTION_DDOT":0},{"OBJECT_NAME":"SL-14 R/B","OBJECT_ID":"1984-027B","EPOCH":"2026-03-09T19:52:03.692064","MEAN_MOTION":14.85976583,"ECCENTRICITY":0.0017332,"INCLINATION":82.5387,"RA_OF_ASC_NODE":244.883,"ARG_OF_PERICENTER":337.38,"MEAN_ANOMALY":22.6651,"EPHEMERIS_TYPE":0,"CLASSIFICATION_TYPE":"U","NORAD_CAT_ID":14820,"ELEMENT_SET_NO":999,"REV_AT_EPOCH":24765,"BSTAR":7.1145e-5,"MEAN_MOTION_DOT":6.47e-6,"MEAN_MOTION_DDOT":0},{"OBJECT_NAME":"SL-8 R/B","OBJECT_ID":"1985-006B","EPOCH":"2026-03-09T20:59:31.178688","MEAN_MOTION":14.3778299,"ECCENTRICITY":0.0018456,"INCLINATION":74.0433,"RA_OF_ASC_NODE":260.8081,"ARG_OF_PERICENTER":178.6171,"MEAN_ANOMALY":283.6883,"EPHEMERIS_TYPE":0,"CLASSIFICATION_TYPE":"U","NORAD_CAT_ID":15483,"ELEMENT_SET_NO":999,"REV_AT_EPOCH":15405,"BSTAR":0.00012763,"MEAN_MOTION_DOT":3.59e-6,"MEAN_MOTION_DDOT":0},{"OBJECT_NAME":"SL-12 R/B(2)","OBJECT_ID":"1985-042D","EPOCH":"2026-03-09T12:01:15.473856","MEAN_MOTION":14.21982311,"ECCENTRICITY":0.00332559,"INCLINATION":71.1062,"RA_OF_ASC_NODE":88.1277,"ARG_OF_PERICENTER":128.4726,"MEAN_ANOMALY":23.4074,"EPHEMERIS_TYPE":0,"CLASSIFICATION_TYPE":"U","NORAD_CAT_ID":15772,"ELEMENT_SET_NO":999,"REV_AT_EPOCH":11436,"BSTAR":3.8313498e-5,"MEAN_MOTION_DOT":3.8e-7,"MEAN_MOTION_DDOT":0},{"OBJECT_NAME":"SL-14 R/B","OBJECT_ID":"1985-069B","EPOCH":"2026-03-09T21:07:01.595712","MEAN_MOTION":14.86433417,"ECCENTRICITY":0.0018487,"INCLINATION":82.5285,"RA_OF_ASC_NODE":24.754,"ARG_OF_PERICENTER":187.0505,"MEAN_ANOMALY":173.0455,"EPHEMERIS_TYPE":0,"CLASSIFICATION_TYPE":"U","NORAD_CAT_ID":15945,"ELEMENT_SET_NO":999,"REV_AT_EPOCH":17286,"BSTAR":7.8191e-5,"MEAN_MOTION_DOT":7.17e-6,"MEAN_MOTION_DDOT":0},{"OBJECT_NAME":"SL-16 R/B","OBJECT_ID":"1985-097B","EPOCH":"2026-03-09T15:26:02.448096","MEAN_MOTION":14.16598844,"ECCENTRICITY":0.0009922,"INCLINATION":71.0028,"RA_OF_ASC_NODE":140.6527,"ARG_OF_PERICENTER":259.8779,"MEAN_ANOMALY":209.8797,"EPHEMERIS_TYPE":0,"CLASSIFICATION_TYPE":"U","NORAD_CAT_ID":16182,"ELEMENT_SET_NO":999,"REV_AT_EPOCH":8722,"BSTAR":-7.3507e-5,"MEAN_MOTION_DOT":-1.95e-6,"MEAN_MOTION_DDOT":0}]
